ORBCOMM FM103           
1 40091U 14040F   25117.54925074  .00001683  00000+0  39860-3 0  9991
2 40091  47.0054 256.9342 0001128  34.0192 326.0765 14.58087847556713
ORBCOMM FM114           
1 41179U 15081A   25117.50372286  .00001111  00000+0  27521-3 0  9999
2 41179  47.0007 166.2235 0001206 141.3114 218.7858 14.58139406497078
ORBCOMM FM119           
1 41180U 15081B   25117.07827262  .00001586  00000+0  37804-3 0  9993
2 41180  47.0003  77.5271 0001118 224.4652 135.6144 14.58057079498264
ORBCOMM FM105           
1 41181U 15081C   25117.06197735  .00000737  00000+0  25316-3 0  9990
2 41181  47.0014  77.5910 0000885  75.3824 284.7154 14.45174837493351
ORBCOMM FM110           
1 41182U 15081D   25117.48153928  .00001454  00000+0  34999-3 0  9997
2 41182  47.0007 165.7179 0002939 285.5519  74.5042 14.58010905496947
ORBCOMM FM118           
1 41183U 15081E   25117.39666205  .00001552  00000+0  37082-3 0  9990
2 41183  47.0002 166.5650 0003461 272.8552  87.1938 14.58026781497037
ORBCOMM FM112           
1 41184U 15081F   25116.91795198  .00001569  00000+0  37421-3 0  9997
2 41184  46.9991  77.4461 0000270 154.3965 205.6934 14.58072967498187
ORBCOMM FM113           
1 41185U 15081G   25117.57992194  .00001770  00000+0  41754-3 0  9994
2 41185  47.0007  74.6362 0000671 200.4200 159.6658 14.58055971498263
