<?xml version="1.0" encoding="UTF-8"?>
<ndm xmlns:xsi="http://www.w3.org/2001/XMLSchema-instance" xsi:noNamespaceSchemaLocation="https://sanaregistry.org/r/ndmxml_unqualified/ndmxml-2.0.0-master-2.0.xsd">
<omm id="CCSDS_OMM_VERS" version="2.0">
<header><CREATION_DATE/><ORIGINATOR/></header><body><segment><metadata><OBJECT_NAME>ORBCOMM FM103</OBJECT_NAME><OBJECT_ID>2014-040F</OBJECT_ID><CENTER_NAME>EARTH</CENTER_NAME><REF_FRAME>TEME</REF_FRAME><TIME_SYSTEM>UTC</TIME_SYSTEM><MEAN_ELEMENT_THEORY>SGP4</MEAN_ELEMENT_THEORY></metadata><data><meanElements><EPOCH>2025-04-27T13:10:55.263936</EPOCH><MEAN_MOTION>14.58087847</MEAN_MOTION><ECCENTRICITY>.0001128</ECCENTRICITY><INCLINATION>47.0054</INCLINATION><RA_OF_ASC_NODE>256.9342</RA_OF_ASC_NODE><ARG_OF_PERICENTER>34.0192</ARG_OF_PERICENTER><MEAN_ANOMALY>326.0765</MEAN_ANOMALY></meanElements><tleParameters><EPHEMERIS_TYPE>0</EPHEMERIS_TYPE><CLASSIFICATION_TYPE>U</CLASSIFICATION_TYPE><NORAD_CAT_ID>40091</NORAD_CAT_ID><ELEMENT_SET_NO>999</ELEMENT_SET_NO><REV_AT_EPOCH>55671</REV_AT_EPOCH><BSTAR>.3986E-3</BSTAR><MEAN_MOTION_DOT>.1683E-4</MEAN_MOTION_DOT><MEAN_MOTION_DDOT>0</MEAN_MOTION_DDOT></tleParameters></data></segment></body></omm>
<omm id="CCSDS_OMM_VERS" version="2.0">
<header><CREATION_DATE/><ORIGINATOR/></header><body><segment><metadata><OBJECT_NAME>ORBCOMM FM114</OBJECT_NAME><OBJECT_ID>2015-081A</OBJECT_ID><CENTER_NAME>EARTH</CENTER_NAME><REF_FRAME>TEME</REF_FRAME><TIME_SYSTEM>UTC</TIME_SYSTEM><MEAN_ELEMENT_THEORY>SGP4</MEAN_ELEMENT_THEORY></metadata><data><meanElements><EPOCH>2025-04-27T12:05:21.655104</EPOCH><MEAN_MOTION>14.58139406</MEAN_MOTION><ECCENTRICITY>.0001206</ECCENTRICITY><INCLINATION>47.0007</INCLINATION><RA_OF_ASC_NODE>166.2235</RA_OF_ASC_NODE><ARG_OF_PERICENTER>141.3114</ARG_OF_PERICENTER><MEAN_ANOMALY>218.7858</MEAN_ANOMALY></meanElements><tleParameters><EPHEMERIS_TYPE>0</EPHEMERIS_TYPE><CLASSIFICATION_TYPE>U</CLASSIFICATION_TYPE><NORAD_CAT_ID>41179</NORAD_CAT_ID><ELEMENT_SET_NO>999</ELEMENT_SET_NO><REV_AT_EPOCH>49707</REV_AT_EPOCH><BSTAR>.27521E-3</BSTAR><MEAN_MOTION_DOT>.1111E-4</MEAN_MOTION_DOT><MEAN_MOTION_DDOT>0</MEAN_MOTION_DDOT></tleParameters></data></segment></body></omm>
<omm id="CCSDS_OMM_VERS" version="2.0">
<header><CREATION_DATE/><ORIGINATOR/></header><body><segment><metadata><OBJECT_NAME>ORBCOMM FM119</OBJECT_NAME><OBJECT_ID>2015-081B</OBJECT_ID><CENTER_NAME>EARTH</CENTER_NAME><REF_FRAME>TEME</REF_FRAME><TIME_SYSTEM>UTC</TIME_SYSTEM><MEAN_ELEMENT_THEORY>SGP4</MEAN_ELEMENT_THEORY></metadata><data><meanElements><EPOCH>2025-04-27T01:52:42.754368</EPOCH><MEAN_MOTION>14.58057079</MEAN_MOTION><ECCENTRICITY>.0001118</ECCENTRICITY><INCLINATION>47.0003</INCLINATION><RA_OF_ASC_NODE>77.5271</RA_OF_ASC_NODE><ARG_OF_PERICENTER>224.4652</ARG_OF_PERICENTER><MEAN_ANOMALY>135.6144</MEAN_ANOMALY></meanElements><tleParameters><EPHEMERIS_TYPE>0</EPHEMERIS_TYPE><CLASSIFICATION_TYPE>U</CLASSIFICATION_TYPE><NORAD_CAT_ID>41180</NORAD_CAT_ID><ELEMENT_SET_NO>999</ELEMENT_SET_NO><REV_AT_EPOCH>49826</REV_AT_EPOCH><BSTAR>.37804E-3</BSTAR><MEAN_MOTION_DOT>.1586E-4</MEAN_MOTION_DOT><MEAN_MOTION_DDOT>0</MEAN_MOTION_DDOT></tleParameters></data></segment></body></omm>
<omm id="CCSDS_OMM_VERS" version="2.0">
<header><CREATION_DATE/><ORIGINATOR/></header><body><segment><metadata><OBJECT_NAME>ORBCOMM FM105</OBJECT_NAME><OBJECT_ID>2015-081C</OBJECT_ID><CENTER_NAME>EARTH</CENTER_NAME><REF_FRAME>TEME</REF_FRAME><TIME_SYSTEM>UTC</TIME_SYSTEM><MEAN_ELEMENT_THEORY>SGP4</MEAN_ELEMENT_THEORY></metadata><data><meanElements><EPOCH>2025-04-27T01:29:14.843040</EPOCH><MEAN_MOTION>14.45174837</MEAN_MOTION><ECCENTRICITY>.0000885</ECCENTRICITY><INCLINATION>47.0014</INCLINATION><RA_OF_ASC_NODE>77.5910</RA_OF_ASC_NODE><ARG_OF_PERICENTER>75.3824</ARG_OF_PERICENTER><MEAN_ANOMALY>284.7154</MEAN_ANOMALY></meanElements><tleParameters><EPHEMERIS_TYPE>0</EPHEMERIS_TYPE><CLASSIFICATION_TYPE>U</CLASSIFICATION_TYPE><NORAD_CAT_ID>41181</NORAD_CAT_ID><ELEMENT_SET_NO>999</ELEMENT_SET_NO><REV_AT_EPOCH>49335</REV_AT_EPOCH><BSTAR>.25316E-3</BSTAR><MEAN_MOTION_DOT>.737E-5</MEAN_MOTION_DOT><MEAN_MOTION_DDOT>0</MEAN_MOTION_DDOT></tleParameters></data></segment></body></omm>
<omm id="CCSDS_OMM_VERS" version="2.0">
<header><CREATION_DATE/><ORIGINATOR/></header><body><segment><metadata><OBJECT_NAME>ORBCOMM FM110</OBJECT_NAME><OBJECT_ID>2015-081D</OBJECT_ID><CENTER_NAME>EARTH</CENTER_NAME><REF_FRAME>TEME</REF_FRAME><TIME_SYSTEM>UTC</TIME_SYSTEM><MEAN_ELEMENT_THEORY>SGP4</MEAN_ELEMENT_THEORY></metadata><data><meanElements><EPOCH>2025-04-27T11:33:24.993792</EPOCH><MEAN_MOTION>14.58010905</MEAN_MOTION><ECCENTRICITY>.0002939</ECCENTRICITY><INCLINATION>47.0007</INCLINATION><RA_OF_ASC_NODE>165.7179</RA_OF_ASC_NODE><ARG_OF_PERICENTER>285.5519</ARG_OF_PERICENTER><MEAN_ANOMALY>74.5042</MEAN_ANOMALY></meanElements><tleParameters><EPHEMERIS_TYPE>0</EPHEMERIS_TYPE><CLASSIFICATION_TYPE>U</CLASSIFICATION_TYPE><NORAD_CAT_ID>41182</NORAD_CAT_ID><ELEMENT_SET_NO>999</ELEMENT_SET_NO><REV_AT_EPOCH>49694</REV_AT_EPOCH><BSTAR>.34999E-3</BSTAR><MEAN_MOTION_DOT>.1454E-4</MEAN_MOTION_DOT><MEAN_MOTION_DDOT>0</MEAN_MOTION_DDOT></tleParameters></data></segment></body></omm>
<omm id="CCSDS_OMM_VERS" version="2.0">
<header><CREATION_DATE/><ORIGINATOR/></header><body><segment><metadata><OBJECT_NAME>ORBCOMM FM118</OBJECT_NAME><OBJECT_ID>2015-081E</OBJECT_ID><CENTER_NAME>EARTH</CENTER_NAME><REF_FRAME>TEME</REF_FRAME><TIME_SYSTEM>UTC</TIME_SYSTEM><MEAN_ELEMENT_THEORY>SGP4</MEAN_ELEMENT_THEORY></metadata><data><meanElements><EPOCH>2025-04-27T09:31:11.601120</EPOCH><MEAN_MOTION>14.58026781</MEAN_MOTION><ECCENTRICITY>.0003461</ECCENTRICITY><INCLINATION>47.0002</INCLINATION><RA_OF_ASC_NODE>166.5650</RA_OF_ASC_NODE><ARG_OF_PERICENTER>272.8552</ARG_OF_PERICENTER><MEAN_ANOMALY>87.1938</MEAN_ANOMALY></meanElements><tleParameters><EPHEMERIS_TYPE>0</EPHEMERIS_TYPE><CLASSIFICATION_TYPE>U</CLASSIFICATION_TYPE><NORAD_CAT_ID>41183</NORAD_CAT_ID><ELEMENT_SET_NO>999</ELEMENT_SET_NO><REV_AT_EPOCH>49703</REV_AT_EPOCH><BSTAR>.37082E-3</BSTAR><MEAN_MOTION_DOT>.1552E-4</MEAN_MOTION_DOT><MEAN_MOTION_DDOT>0</MEAN_MOTION_DDOT></tleParameters></data></segment></body></omm>
<omm id="CCSDS_OMM_VERS" version="2.0">
<header><CREATION_DATE/><ORIGINATOR/></header><body><segment><metadata><OBJECT_NAME>ORBCOMM FM112</OBJECT_NAME><OBJECT_ID>2015-081F</OBJECT_ID><CENTER_NAME>EARTH</CENTER_NAME><REF_FRAME>TEME</REF_FRAME><TIME_SYSTEM>UTC</TIME_SYSTEM><MEAN_ELEMENT_THEORY>SGP4</MEAN_ELEMENT_THEORY></metadata><data><meanElements><EPOCH>2025-04-26T22:01:51.051072</EPOCH><MEAN_MOTION>14.58072967</MEAN_MOTION><ECCENTRICITY>.000027</ECCENTRICITY><INCLINATION>46.9991</INCLINATION><RA_OF_ASC_NODE>77.4461</RA_OF_ASC_NODE><ARG_OF_PERICENTER>154.3965</ARG_OF_PERICENTER><MEAN_ANOMALY>205.6934</MEAN_ANOMALY></meanElements><tleParameters><EPHEMERIS_TYPE>0</EPHEMERIS_TYPE><CLASSIFICATION_TYPE>U</CLASSIFICATION_TYPE><NORAD_CAT_ID>41184</NORAD_CAT_ID><ELEMENT_SET_NO>999</ELEMENT_SET_NO><REV_AT_EPOCH>49818</REV_AT_EPOCH><BSTAR>.37421E-3</BSTAR><MEAN_MOTION_DOT>.1569E-4</MEAN_MOTION_DOT><MEAN_MOTION_DDOT>0</MEAN_MOTION_DDOT></tleParameters></data></segment></body></omm>
<omm id="CCSDS_OMM_VERS" version="2.0">
<header><CREATION_DATE/><ORIGINATOR/></header><body><segment><metadata><OBJECT_NAME>ORBCOMM FM113</OBJECT_NAME><OBJECT_ID>2015-081G</OBJECT_ID><CENTER_NAME>EARTH</CENTER_NAME><REF_FRAME>TEME</REF_FRAME><TIME_SYSTEM>UTC</TIME_SYSTEM><MEAN_ELEMENT_THEORY>SGP4</MEAN_ELEMENT_THEORY></metadata><data><meanElements><EPOCH>2025-04-27T13:55:05.255616</EPOCH><MEAN_MOTION>14.58055971</MEAN_MOTION><ECCENTRICITY>.0000671</ECCENTRICITY><INCLINATION>47.0007</INCLINATION><RA_OF_ASC_NODE>74.6362</RA_OF_ASC_NODE><ARG_OF_PERICENTER>200.4200</ARG_OF_PERICENTER><MEAN_ANOMALY>159.6658</MEAN_ANOMALY></meanElements><tleParameters><EPHEMERIS_TYPE>0</EPHEMERIS_TYPE><CLASSIFICATION_TYPE>U</CLASSIFICATION_TYPE><NORAD_CAT_ID>41185</NORAD_CAT_ID><ELEMENT_SET_NO>999</ELEMENT_SET_NO><REV_AT_EPOCH>49826</REV_AT_EPOCH><BSTAR>.41754E-3</BSTAR><MEAN_MOTION_DOT>.177E-4</MEAN_MOTION_DOT><MEAN_MOTION_DDOT>0</MEAN_MOTION_DDOT></tleParameters></data></segment></body></omm>

</ndm>
